ONEWEB-0159             
1 48062U 21025W   24357.26227194  .00000340  00000+0  89651-3 0  9992
2 48062  87.8920  67.9853 0001981 106.9855 253.1492 13.13472743182469
ONEWEB-0164             
1 48063U 21025X   24357.24480580 -.00000270  00000+0 -77537-3 0  9995
2 48063  87.8917  67.9988 0001623 102.0327 258.0984 13.13471201182445
ONEWEB-0167             
1 48064U 21025Y   24357.27436641  .00000401  00000+0  10637-2 0  9999
2 48064  87.8923  68.0080 0001912 109.0127 251.1210 13.13486209182433
ONEWEB-0166             
1 48065U 21025Z   24357.21941492 -.00000018  00000+0 -83384-4 0  9996
2 48065  87.8919  67.9946 0001966 103.0078 257.1271 13.13472078182506
ONEWEB-0151             
1 48066U 21025AA  24357.22102808  .00000522  00000+0  13933-2 0  9997
2 48066  87.8915  68.0118 0001747 113.6050 246.5262 13.13466836182440
ONEWEB-0170             
1 48067U 21025AB  24357.22894978 -.00000235  00000+0 -67963-3 0  9990
2 48067  87.8922  68.0144 0001205  97.9170 262.2095 13.13472095182403
ONEWEB-0168             
1 48068U 21025AC  24357.59554330  .00000066  00000+0  14594-3 0  9998
2 48068  87.8926  67.9167 0001784 105.5267 254.6059 13.13471566182469
ONEWEB-0173             
1 48069U 21025AD  24357.28290013  .00000243  00000+0  63124-3 0  9990
2 48069  87.8925  67.9885 0001760 120.2902 239.8402 13.13471672182667
